NORAD_CAT_ID,OBJECT_NAME,OBJECT_TYPE,EPOCH,MEAN_MOTION,ECCENTRICITY,INCLINATION,RA_OF_ASC_NODE,ARG_OF_PERICENTER,MEAN_ANOMALY,BSTAR,MEAN_MOTION_DOT,MEAN_MOTION_DDOT,TLE_LINE0,TLE_LINE1,TLE_LINE2,SEMIMAJOR_AXIS,PERIOD,APOGEE,PERIGEE,DECAYED
52638.0,STARLINK-3941,PAYLOAD,2023-02-27 18:09:33,15.08878457,0.0001281,53.2136,193.848,91.8,268.3139,0.0012474,0.00019641,0.0,0 STARLINK-3941,1 52638U 22052AS  23058.75663945  .00019641  00000-0  12474-2 0  9999,2 52638  53.2136 193.8480 0001281  91.8000 268.3139 15.08878457 44417,6917.763,95.435,540.514,538.742,0.0
52638.0,STARLINK-3941,PAYLOAD,2023-02-28 02:06:29,15.08854373,0.0001472,53.2137,192.3607,82.0544,278.0615,0.00074425,0.00011581,0.0,0 STARLINK-3941,1 52638U 22052AS  23059.08784507  .00011581  00000-0  74425-3 0  9994,2 52638  53.2137 192.3607 0001472  82.0544 278.0615 15.08854373 44463,6917.836,95.437,540.72,538.683,0.0
52638.0,STARLINK-3941,PAYLOAD,2023-02-28 08:28:02,15.08846898,0.0001542,53.2126,191.1717,80.1171,279.9996,0.00049255,7.561e-05,0.0,0 STARLINK-3941,1 52638U 22052AS  23059.35280575  .00007561  00000-0  49255-3 0  9996,2 52638  53.2126 191.1717 0001542  80.1171 279.9996 15.08846898 44503,6917.859,95.437,540.791,538.658,0.0
52638.0,STARLINK-3941,PAYLOAD,2023-02-28 13:14:11,15.08846517,0.0001555,53.2131,190.2798,78.4683,281.6483,0.00031859,4.787e-05,0.0,0 STARLINK-3941,1 52638U 22052AS  23059.55152486  .00004787  00000-0  31859-3 0  9995,2 52638  53.2131 190.2798 0001555  78.4683 281.6483 15.08846517 44969,6917.86,95.437,540.801,538.65,0.0
52638.0,STARLINK-3941,PAYLOAD,2023-02-28 14:49:34,15.08845572,0.0001213,53.2145,189.9813,80.7862,279.3267,0.00032263,4.851e-05,0.0,0 STARLINK-3941,1 52638U 22052AS  23059.61776392  .00004851  00000-0  32263-3 0  9992,2 52638  53.2145 189.9813 0001213  80.7862 279.3267 15.08845572 44978,6917.863,95.437,540.567,538.889,0.0
52638.0,STARLINK-3941,PAYLOAD,2023-03-01 01:57:17,15.08837122,0.0001175,53.2143,187.9009,80.0269,280.0855,6.9203e-05,8.14e-06,0.0,0 STARLINK-3941,1 52638U 22052AS  23060.08144728  .00000814  00000-0  69203-4 0  9997,2 52638  53.2143 187.9009 0001175  80.0269 280.0855 15.08837122 44617,6917.889,95.438,540.567,538.941,0.0
52638.0,STARLINK-3941,PAYLOAD,2023-03-01 08:18:50,15.08812455,0.000141,53.214,186.7114,93.7623,266.353,-0.00049456,-8.144e-05,0.0,0 STARLINK-3941,1 52638U 22052AS  23060.34641627 -.00008144  00000-0 -49456-3 0  9999,2 52638  53.2140 186.7114 0001410  93.7623 266.3530 15.08812455 44658,6917.965,95.439,540.805,538.854,0.0
52638.0,STARLINK-3941,PAYLOAD,2023-03-01 13:05:00,15.08812242,0.0001463,53.2134,185.8203,80.2352,279.8805,-0.00030417,-5.122e-05,0.0,0 STARLINK-3941,1 52638U 22052AS  23060.54514099 -.00005122  00000-0 -30417-3 0  9993,2 52638  53.2134 185.8203 0001463  80.2352 279.8805 15.08812242 45118,6917.965,95.439,540.842,538.818,0.0
52638.0,STARLINK-3941,PAYLOAD,2023-03-02 01:48:05,15.0882474,0.0001899,53.2142,183.4404,85.5139,274.607,0.00036464,5.518e-05,0.0,0 STARLINK-3941,1 52638U 22052AS  23061.07506789  .00005518  00000-0  36464-3 0  9994,2 52638  53.2142 183.4404 0001899  85.5139 274.6070 15.08824740 44761,6917.927,95.439,541.106,538.478,0.0
52638.0,STARLINK-3941,PAYLOAD,2023-03-02 14:31:10,15.08867686,0.000165,53.2148,181.0633,70.4207,289.6963,0.0019362,0.00030685,0.0,0 STARLINK-3941,1 52638U 22052AS  23061.60498414  .00030685  00000-0  19362-2 0  9998,2 52638  53.2148 181.0633 0001650  70.4207 289.6963 15.08867686 44841,6917.796,95.436,540.802,538.519,0.0
52638.0,STARLINK-3941,PAYLOAD,2023-03-03 08:00:24,15.08883248,0.0001495,53.2146,177.7916,97.4153,262.7009,0.0020562,0.00032627,0.0,0 STARLINK-3941,1 52638U 22052AS  23062.33361486  .00032627  00000-0  20562-2 0  9999,2 52638  53.2146 177.7916 0001495  97.4153 262.7009 15.08883248 44958,6917.748,95.435,540.647,538.579,0.0
52638.0,STARLINK-3941,PAYLOAD,2023-03-03 11:11:10,15.08883284,0.000124,53.2153,177.1971,79.1668,280.9464,0.0020793,0.00032999,0.0,0 STARLINK-3941,1 52638U 22052AS  23062.46609366  .00032999  00000-0  20793-2 0  9993,2 52638  53.2153 177.1971 0001240  79.1668 280.9464 15.08883284 45405,6917.748,95.435,540.471,538.755,0.0
52638.0,STARLINK-3941,PAYLOAD,2023-03-03 23:54:15,15.08850706,0.0001518,53.2157,174.8187,73.1383,286.9775,0.0024466,0.00038876,0.0,0 STARLINK-3941,1 52638U 22052AS  23062.99600938  .00038876  00000-0  24466-2 0  9998,2 52638  53.2157 174.8187 0001518  73.1383 286.9775 15.08850706 45053,6917.848,95.437,540.763,538.663,0.0
52638.0,STARLINK-3941,PAYLOAD,2023-03-04 07:51:10,15.08836229,8.6e-05,53.2149,173.331,83.1021,277.0069,-5.4858e-05,-1.161e-05,0.0,0 STARLINK-3941,1 52638U 22052AS  23063.32720930 -.00001161  00000-0 -54858-4 0  9990,2 52638  53.2149 173.3310 0000860  83.1021 277.0069 15.08836229 45102,6917.892,95.438,540.352,539.162,0.0
52638.0,STARLINK-3941,PAYLOAD,2023-03-04 11:01:57,15.08831556,9.42e-05,53.2162,172.7364,114.7657,245.3433,0.0017581,0.00027796,0.0,0 STARLINK-3941,1 52638U 22052AS  23063.45969202  .00027796  00000-0  17581-2 0  9991,2 52638  53.2162 172.7364 0000942 114.7657 245.3433 15.08831556 45556,6917.906,95.438,540.423,539.12,0.0
52638.0,STARLINK-3941,PAYLOAD,2023-03-04 12:37:20,15.08833815,0.0001069,53.2159,172.4392,110.3302,249.7805,0.0018559,0.00029367,0.0,0 STARLINK-3941,1 52638U 22052AS  23063.52593249  .00029367  00000-0  18559-2 0  9995,2 52638  53.2159 172.4392 0001069 110.3302 249.7805 15.08833815 45562,6917.899,95.438,540.504,539.025,0.0
52638.0,STARLINK-3941,PAYLOAD,2023-03-04 23:45:02,15.08834211,0.0001109,53.2158,170.3579,112.9575,247.1534,0.00068766,0.00010671,0.0,0 STARLINK-3941,1 52638U 22052AS  23063.98961577  .00010671  00000-0  68766-3 0  9992,2 52638  53.2158 170.3579 0001109 112.9575 247.1534 15.08834211 45630,6917.898,95.438,540.53,538.996,0.0
52638.0,STARLINK-3941,PAYLOAD,2023-03-06 10:43:31,15.08851725,8.08e-05,53.2151,163.8141,110.0711,250.0369,0.00045106,6.9e-05,0.0,0 STARLINK-3941,1 52638U 22052AS  23065.44689279  .00006900  00000-0  45106-3 0  9994,2 52638  53.2151 163.8141 0000808 110.0711 250.0369 15.08851725 45426,6917.845,95.437,540.269,539.151,0.0
52638.0,STARLINK-3941,PAYLOAD,2023-03-06 18:40:26,15.08878109,5.68e-05,53.2147,162.3279,95.7934,264.3123,0.0012053,0.00018966,0.0,0 STARLINK-3941,1 52638U 22052AS  23065.77808461  .00018966  00000-0  12053-2 0  9995,2 52638  53.2147 162.3279 0000568  95.7934 264.3123 15.08878109 45472,6917.764,95.435,540.022,539.236,0.0
52638.0,STARLINK-3941,PAYLOAD,2023-03-07 02:37:23,15.08819489,8.01e-05,53.2149,160.8404,108.6172,251.4907,-0.00084704,-0.00013735,0.0,0 STARLINK-3941,1 52638U 22052AS  23066.10929817 -.00013735  00000-0 -84704-3 0  9996,2 52638  53.2149 160.8404 0000801 108.6172 251.4907 15.08819489 45524,6917.943,95.439,540.362,539.254,0.0
52638.0,STARLINK-3941,PAYLOAD,2023-03-07 12:09:42,15.0885126,9.84e-05,53.2144,159.057,101.748,258.3623,0.0025973,0.00041303,0.0,0 STARLINK-3941,1 52638U 22052AS  23066.50673934  .00041303  00000-0  25973-2 0  9998,2 52638  53.2144 159.0570 0000984 101.7480 258.3623 15.08851260 45581,6917.846,95.437,540.392,539.03,0.0
52638.0,STARLINK-3941,PAYLOAD,2023-03-07 18:31:14,15.08882934,0.0001126,53.2142,157.8675,96.9557,263.1564,0.0038245,0.00061179,0.0,0 STARLINK-3941,1 52638U 22052AS  23066.77169639  .00061179  00000-0  38245-2 0  9998,2 52638  53.2142 157.8675 0001126  96.9557 263.1564 15.08882934 46053,6917.749,95.435,540.393,538.835,0.0
52638.0,STARLINK-3941,PAYLOAD,2023-03-08 02:28:10,15.08825452,0.000137,53.2142,156.3814,113.7755,246.3381,0.0024518,0.00038933,0.0,0 STARLINK-3941,1 52638U 22052AS  23067.10290313  .00038933  00000-0  24518-2 0  9990,2 52638  53.2142 156.3814 0001370 113.7755 246.3381 15.08825452 45670,6917.925,95.438,540.738,538.842,0.0
52638.0,STARLINK-3941,PAYLOAD,2023-03-08 19:57:25,15.08843676,0.0001202,53.2141,153.1096,90.4656,269.6473,0.0013758,0.00021678,0.0,0 STARLINK-3941,1 52638U 22052AS  23067.83154013  .00021678  00000-0  13758-2 0  9998,2 52638  53.2141 153.1096 0001202  90.4656 269.6473 15.08843676 45781,6917.869,95.437,540.566,538.903,0.0
52638.0,STARLINK-3941,PAYLOAD,2023-03-09 16:37:24,15.08912992,0.0001169,53.2141,149.2433,89.2032,270.9095,0.0048215,0.00077445,0.0,0 STARLINK-3941,1 52638U 22052AS  23068.69265034  .00077445  00000-0  48215-2 0  9998,2 52638  53.2141 149.2433 0001169  89.2032 270.9095 15.08912992 45916,6917.657,95.433,540.331,538.714,0.0
52638.0,STARLINK-3941,PAYLOAD,2023-03-09 19:48:11,15.08878919,0.0001463,53.2142,148.6488,70.8937,289.2213,0.002785,0.00044362,0.0,0 STARLINK-3941,1 52638U 22052AS  23068.82513202  .00044362  00000-0  27850-2 0  9990,2 52638  53.2142 148.6488 0001463  70.8937 289.2213 15.08878919 46362,6917.761,95.435,540.639,538.614,0.0
52638.0,STARLINK-3941,PAYLOAD,2023-03-10 11:42:02,15.08878756,0.0001187,53.2142,145.6748,111.7458,248.366,0.0040663,0.00065094,0.0,0 STARLINK-3941,1 52638U 22052AS  23069.48752758  .00065094  00000-0  40663-2 0  9996,2 52638  53.2142 145.6748 0001187 111.7458 248.3660 15.08878756 46039,6917.762,95.435,540.448,538.806,0.0
52638.0,STARLINK-3941,PAYLOAD,2023-03-10 19:38:58,15.08819335,0.0001261,53.2142,144.1879,78.6768,281.4365,-0.00088442,-0.00014328,0.0,0 STARLINK-3941,1 52638U 22052AS  23069.81872884 -.00014328  00000-0 -88442-3 0  9990,2 52638  53.2142 144.1879 0001261  78.6768 281.4365 15.08819335 46089,6917.944,95.439,540.681,538.936,0.0
52638.0,STARLINK-3941,PAYLOAD,2023-03-11 08:22:04,15.08818976,0.000119,53.2141,141.809,82.8742,277.2385,0.0037917,0.0006054,0.0,0 STARLINK-3941,1 52638U 22052AS  23070.34866051  .00060540  00000-0  37917-2 0  9994,2 52638  53.2141 141.8090 0001190  82.8742 277.2385 15.08818976 46161,6917.945,95.439,540.633,538.986,0.0
52638.0,STARLINK-3941,PAYLOAD,2023-03-11 13:08:13,15.08836022,0.0001147,53.2141,140.9166,80.7048,279.4074,0.0030696,0.00048898,0.0,0 STARLINK-3941,1 52638U 22052AS  23070.54738213  .00048898  00000-0  30696-2 0  9993,2 52638  53.2141 140.9166 0001147  80.7048 279.4074 15.08836022 46625,6917.893,95.438,540.551,538.964,0.0
